IRIDIUM 159             
1 43578U 18061K   25230.41086277  .00000059  00000+0  13936-4 0  9999
2 43578  86.4024 183.2214 0002387  80.4672 279.6793 14.34217632369982
IRIDIUM 180             
1 43922U 19002A   25230.41035776  .00000032  00000+0  44371-5 0  9995
2 43922  86.3976 120.1985 0002050  83.3024 276.8405 14.34217848345594
IRIDIUM 176             
1 43923U 19002B   25230.43083257  .00000743  00000+0  11387-3 0  9993
2 43923  86.6099 120.1771 0001872  99.0788 261.0641 14.72253940354705
IRIDIUM 168             
1 43924U 19002C   25230.40401563  .00000038  00000+0  66193-5 0  9999
2 43924  86.3979 120.2700 0002130  84.2955 275.8484 14.34217599345574
IRIDIUM 173             
1 43925U 19002D   25230.39132990  .00000099  00000+0  28160-4 0  9991
2 43925  86.3974 120.1765 0001967  84.6697 275.4723 14.34217880345557
IRIDIUM 169             
1 43926U 19002E   25230.54552966  .00000283  00000+0  85879-4 0  9993
2 43926  86.4287 151.7118 0001337 117.7718 242.3615 14.38609022346710
IRIDIUM 172             
1 43927U 19002F   25230.45475440  .00000163  00000+0  51236-4 0  9992
2 43927  86.3976 120.1570 0002115  77.0503 283.0928 14.34217839345571
IRIDIUM 175             
1 43928U 19002G   25230.56183223  .00000250  00000+0  35679-4 0  9990
2 43928  86.1452  69.0679 0002832 104.3857 255.7674 14.72242665354719
